{
  "type": "FeatureCollection",
  "features": [
    {
      "type": "Feature",
      "properties": {
        "norad_id": 67117,
        "name": "STARLINK-35674",
        "group": "last-30-days",
        "lat": 10.095936538497954,
        "lon": -94.80125840889703,
        "alt_km": 292.92813252436554,
        "timestamp": "2025-12-22T22:44:19.654680+00:00",
        "meta_object_name": "STARLINK-35674",
        "meta_object_id": "2025-299R",
        "meta_epoch": "2025-12-22T14:00:01.999872",
        "meta_mean_motion": 15.94135687,
        "meta_eccentricity": 0.00018216,
        "meta_inclination": 42.9986,
        "meta_ra_of_asc_node": 256.4528,
        "meta_arg_of_pericenter": 267.3678,
        "meta_mean_anomaly": 176.3014,
        "meta_ephemeris_type": 0,
        "meta_classification_type": "U",
        "meta_norad_cat_id": 67117,
        "meta_element_set_no": 999,
        "meta_rev_at_epoch": 218,
        "meta_bstar": -0.0044243787,
        "meta_mean_motion_dot": -0.0169521,
        "meta_mean_motion_ddot": 0.00081171896,
        "tle_line1": "1 67117U 25299R   25356.58335648 -.01695210  81172-3 -44244-2 0  9990",
        "tle_line2": "2 67117  42.9986 256.4528 0001821 267.3678 176.3014 15.94135687  2187"
      },
      "geometry": {
        "type": "Point",
        "coordinates": [
          -94.80125840889703,
          10.095936538497954
        ]
      }
    },
    {
      "type": "Feature",
      "properties": {
        "norad_id": 67118,
        "name": "STARLINK-35701",
        "group": "last-30-days",
        "lat": 11.234175994356471,
        "lon": -93.5139546465164,
        "alt_km": 292.52778113092063,
        "timestamp": "2025-12-22T22:44:19.654690+00:00",
        "meta_object_name": "STARLINK-35701",
        "meta_object_id": "2025-299S",
        "meta_epoch": "2025-12-22T14:00:01.999872",
        "meta_mean_motion": 15.94157433,
        "meta_eccentricity": 0.00020932,
        "meta_inclination": 42.9986,
        "meta_ra_of_asc_node": 256.4485,
        "meta_arg_of_pericenter": 277.9896,
        "meta_mean_anomaly": 167.3654,
        "meta_ephemeris_type": 0,
        "meta_classification_type": "U",
        "meta_norad_cat_id": 67118,
        "meta_element_set_no": 999,
        "meta_rev_at_epoch": 234,
        "meta_bstar": -0.0045008811,
        "meta_mean_motion_dot": -0.01726208,
        "meta_mean_motion_ddot": 0.00083954952,
        "tle_line1": "1 67118U 25299S   25356.58335648 -.01726208  83955-3 -45009-2 0  9994",
        "tle_line2": "2 67118  42.9986 256.4485 0002093 277.9896 167.3654 15.94157433  2342"
      },
      "geometry": {
        "type": "Point",
        "coordinates": [
          -93.5139546465164,
          11.234175994356471
        ]
      }
    },
    {
      "type": "Feature",
      "properties": {
        "norad_id": 67119,
        "name": "STARLINK-36179",
        "group": "last-30-days",
        "lat": 12.922905444696369,
        "lon": -91.57283991001752,
        "alt_km": 292.2564771680127,
        "timestamp": "2025-12-22T22:44:19.654700+00:00",
        "meta_object_name": "STARLINK-36179",
        "meta_object_id": "2025-299T",
        "meta_epoch": "2025-12-22T14:00:01.999872",
        "meta_mean_motion": 15.94186862,
        "meta_eccentricity": 0.00020374,
        "meta_inclination": 42.9984,
        "meta_ra_of_asc_node": 256.4419,
        "meta_arg_of_pericenter": 278.3787,
        "meta_mean_anomaly": 169.4852,
        "meta_ephemeris_type": 0,
        "meta_classification_type": "U",
        "meta_norad_cat_id": 67119,
        "meta_element_set_no": 999,
        "meta_rev_at_epoch": 239,
        "meta_bstar": -0.0045098603,
        "meta_mean_motion_dot": -0.01732272,
        "meta_mean_motion_ddot": 0.00084526304,
        "tle_line1": "1 67119U 25299T   25356.58335648 -.01732272  84526-3 -45099-2 0  9997",
        "tle_line2": "2 67119  42.9984 256.4419 0002037 278.3787 169.4852 15.94186862  2396"
      },
      "geometry": {
        "type": "Point",
        "coordinates": [
          -91.57283991001752,
          12.922905444696369
        ]
      }
    },
    {
      "type": "Feature",
      "properties": {
        "norad_id": 67120,
        "name": "STARLINK-36217",
        "group": "last-30-days",
        "lat": 12.158153447624105,
        "lon": -92.45664727047534,
        "alt_km": 292.80182884842543,
        "timestamp": "2025-12-22T22:44:19.654710+00:00",
        "meta_object_name": "STARLINK-36217",
        "meta_object_id": "2025-299U",
        "meta_epoch": "2025-12-22T14:00:01.999872",
        "meta_mean_motion": 15.94172329,
        "meta_eccentricity": 0.00014806,
        "meta_inclination": 42.9987,
        "meta_ra_of_asc_node": 256.4452,
        "meta_arg_of_pericenter": 258.7531,
        "meta_mean_anomaly": 187.988,
        "meta_ephemeris_type": 0,
        "meta_classification_type": "U",
        "meta_norad_cat_id": 67120,
        "meta_element_set_no": 999,
        "meta_rev_at_epoch": 239,
        "meta_bstar": -0.0045348175,
        "meta_mean_motion_dot": -0.01740231,
        "meta_mean_motion_ddot": 0.00085234333,
        "tle_line1": "1 67120U 25299U   25356.58335648 -.01740231  85234-3 -45348-2 0  9997",
        "tle_line2": "2 67120  42.9987 256.4452 0001480 258.7531 187.9880 15.94172329  2397"
      },
      "geometry": {
        "type": "Point",
        "coordinates": [
          -92.45664727047534,
          12.158153447624105
        ]
      }
    },
    {
      "type": "Feature",
      "properties": {
        "norad_id": 67121,
        "name": "STARLINK-36124",
        "group": "last-30-days",
        "lat": 15.134812544727062,
        "lon": -88.96254141609818,
        "alt_km": 292.40026281592054,
        "timestamp": "2025-12-22T22:44:19.654720+00:00",
        "meta_object_name": "STARLINK-36124",
        "meta_object_id": "2025-299V",
        "meta_epoch": "2025-12-22T14:00:01.999872",
        "meta_mean_motion": 15.94211499,
        "meta_eccentricity": 0.00016826,
        "meta_inclination": 42.9985,
        "meta_ra_of_asc_node": 256.4336,
        "meta_arg_of_pericenter": 259.6028,
        "meta_mean_anomaly": 191.6134,
        "meta_ephemeris_type": 0,
        "meta_classification_type": "U",
        "meta_norad_cat_id": 67121,
        "meta_element_set_no": 999,
        "meta_rev_at_epoch": 239,
        "meta_bstar": -0.0045657926,
        "meta_mean_motion_dot": -0.0175564,
        "meta_mean_motion_ddot": 0.00086670906,
        "tle_line1": "1 67121U 25299V   25356.58335648 -.01755640  86671-3 -45658-2 0  9998",
        "tle_line2": "2 67121  42.9985 256.4336 0001682 259.6028 191.6134 15.94211499  2398"
      },
      "geometry": {
        "type": "Point",
        "coordinates": [
          -88.96254141609818,
          15.134812544727062
        ]
      }
    },
    {
      "type": "Feature",
      "properties": {
        "norad_id": 67122,
        "name": "STARLINK-36188",
        "group": "last-30-days",
        "lat": 16.08094320455313,
        "lon": -87.81841009822773,
        "alt_km": 292.50811440598045,
        "timestamp": "2025-12-22T22:44:19.654733+00:00",
        "meta_object_name": "STARLINK-36188",
        "meta_object_id": "2025-299W",
        "meta_epoch": "2025-12-22T14:00:01.999872",
        "meta_mean_motion": 15.94296742,
        "meta_eccentricity": 0.00015612,
        "meta_inclination": 42.9987,
        "meta_ra_of_asc_node": 256.4303,
        "meta_arg_of_pericenter": 262.9126,
        "meta_mean_anomaly": 189.775,
        "meta_ephemeris_type": 0,
        "meta_classification_type": "U",
        "meta_norad_cat_id": 67122,
        "meta_element_set_no": 999,
        "meta_rev_at_epoch": 239,
        "meta_bstar": -0.0052746089,
        "meta_mean_motion_dot": -0.02033534,
        "meta_mean_motion_ddot": 0.0011408147,
        "tle_line1": "1 67122U 25299W   25356.58335648 -.02033534  11408-2 -52746-2 0  9992",
        "tle_line2": "2 67122  42.9987 256.4303 0001561 262.9126 189.7750 15.94296742  2393"
      },
      "geometry": {
        "type": "Point",
        "coordinates": [
          -87.81841009822773,
          16.08094320455313
        ]
      }
    },
    {
      "type": "Feature",
      "properties": {
        "norad_id": 67123,
        "name": "STARLINK-36151",
        "group": "last-30-days",
        "lat": 14.016186444277514,
        "lon": -90.29292727650616,
        "alt_km": 292.2091531144497,
        "timestamp": "2025-12-22T22:44:19.654748+00:00",
        "meta_object_name": "STARLINK-36151",
        "meta_object_id": "2025-299X",
        "meta_epoch": "2025-12-22T14:00:01.999872",
        "meta_mean_motion": 15.94219939,
        "meta_eccentricity": 0.00020313,
        "meta_inclination": 42.9988,
        "meta_ra_of_asc_node": 256.4382,
        "meta_arg_of_pericenter": 275.8769,
        "meta_mean_anomaly": 173.6235,
        "meta_ephemeris_type": 0,
        "meta_classification_type": "U",
        "meta_norad_cat_id": 67123,
        "meta_element_set_no": 999,
        "meta_rev_at_epoch": 239,
        "meta_bstar": -0.0046216896,
        "meta_mean_motion_dot": -0.01777758,
        "meta_mean_motion_ddot": 0.00088711949,
        "tle_line1": "1 67123U 25299X   25356.58335648 -.01777758  88712-3 -46217-2 0  9994",
        "tle_line2": "2 67123  42.9988 256.4382 0002031 275.8769 173.6235 15.94219939  2394"
      },
      "geometry": {
        "type": "Point",
        "coordinates": [
          -90.29292727650616,
          14.016186444277514
        ]
      }
    }
  ]
}